NORAD_CAT_ID,OBJECT_NAME,OBJECT_TYPE,EPOCH,MEAN_MOTION,ECCENTRICITY,INCLINATION,RA_OF_ASC_NODE,ARG_OF_PERICENTER,MEAN_ANOMALY,BSTAR,MEAN_MOTION_DOT,MEAN_MOTION_DDOT,TLE_LINE0,TLE_LINE1,TLE_LINE2,SEMIMAJOR_AXIS,PERIOD,APOGEE,PERIGEE,DECAYED
52574.0,STARLINK-3901,PAYLOAD,2023-05-01 09:57:49,15.08842918,0.0001315,53.2163,122.5596,92.3946,267.7196,0.00014101,1.957e-05,0.0,0 STARLINK-3901,1 52574U 22051AQ  23121.41515578  .00001957  00000-0  14101-3 0  9990,2 52574  53.2163 122.5596 0001315  92.3946 267.7196 15.08842918 54089,6917.871,95.437,540.646,538.827,0.0
52574.0,STARLINK-3901,PAYLOAD,2023-05-02 06:37:50,15.0884226,0.0001341,53.2161,118.6928,97.2754,262.8391,8.5416e-05,1.072e-05,0.0,0 STARLINK-3901,1 52574U 22051AQ  23122.27627782  .00001072  00000-0  85416-4 0  9992,2 52574  53.2161 118.6928 0001341  97.2754 262.8391 15.08842260 54287,6917.873,95.437,540.666,538.811,0.0
52574.0,STARLINK-3901,PAYLOAD,2023-05-02 09:48:36,15.08842859,0.0001355,53.2165,118.099,91.5667,268.548,8.6451e-05,1.088e-05,0.0,0 STARLINK-3901,1 52574U 22051AQ  23122.40875738  .00001088  00000-0  86451-4 0  9990,2 52574  53.2165 118.0990 0001355  91.5667 268.5480 15.08842859 54230,6917.872,95.437,540.674,538.799,0.0
52574.0,STARLINK-3901,PAYLOAD,2023-05-02 16:10:09,15.08839446,0.0001365,53.2164,116.9096,86.7501,273.3647,4.7583e-05,4.69e-06,0.0,0 STARLINK-3901,1 52574U 22051AQ  23122.67372057  .00000469  00000-0  47583-4 0  9990,2 52574  53.2164 116.9096 0001365  86.7501 273.3647 15.08839446 54278,6917.882,95.438,540.691,538.803,0.0
52574.0,STARLINK-3901,PAYLOAD,2023-05-03 09:39:23,15.08841786,0.0001314,53.2165,113.639,90.2457,269.8686,5.2284e-05,5.44e-06,0.0,0 STARLINK-3901,1 52574U 22051AQ  23123.40235844  .00000544  00000-0  52284-4 0  9992,2 52574  53.2165 113.6390 0001314  90.2457 269.8686 15.08841786 54457,6917.875,95.437,540.649,538.831,0.0
52574.0,STARLINK-3901,PAYLOAD,2023-05-03 22:22:29,15.08834321,0.0001296,53.2164,111.2602,89.0526,271.0615,3.7704e-05,3.12e-06,0.0,0 STARLINK-3901,1 52574U 22051AQ  23123.93228430  .00000312  00000-0  37704-4 0  9996,2 52574  53.2164 111.2602 0001296  89.0526 271.0615 15.08834321 54463,6917.898,95.438,540.659,538.866,0.0
52574.0,STARLINK-3901,PAYLOAD,2023-05-04 09:30:10,15.08840378,0.0001255,53.2165,109.1785,92.1146,267.999,4.8876e-05,4.9e-06,0.0,0 STARLINK-3901,1 52574U 22051AQ  23124.39596040  .00000490  00000-0  48876-4 0  9991,2 52574  53.2165 109.1785 0001255  92.1146 267.9990 15.08840378 54537,6917.879,95.438,540.612,538.876,0.0
52574.0,STARLINK-3901,PAYLOAD,2023-05-04 22:13:16,15.08837134,0.0001253,53.2162,106.7995,93.4348,266.6788,6.106e-05,6.84e-06,0.0,0 STARLINK-3901,1 52574U 22051AQ  23124.92588311  .00000684  00000-0  61060-4 0  9997,2 52574  53.2162 106.7995 0001253  93.4348 266.6788 15.08837134 54689,6917.889,95.438,540.621,538.887,0.0
52574.0,STARLINK-3901,PAYLOAD,2023-05-05 15:42:30,15.08839887,0.0001231,53.2163,103.5283,89.0008,271.1125,6.4768e-05,7.43e-06,0.0,0 STARLINK-3901,1 52574U 22051AQ  23125.65452167  .00000743  00000-0  64768-4 0  9991,2 52574  53.2163 103.5283 0001231  89.0008 271.1125 15.08839887 54723,6917.881,95.438,540.597,538.894,0.0
52574.0,STARLINK-3901,PAYLOAD,2023-05-05 23:39:26,15.08835349,0.0001233,53.2164,102.0413,90.5446,269.5687,1.293e-05,-8.2e-07,0.0,0 STARLINK-3901,1 52574U 22051AQ  23125.98572718 -.00000082  00000-0  12930-4 0  9993,2 52574  53.2164 102.0413 0001233  90.5446 269.5687 15.08835349 54844,6917.895,95.438,540.613,538.907,0.0
52574.0,STARLINK-3901,PAYLOAD,2023-05-06 15:33:17,15.08839692,0.0001207,53.2163,99.0675,92.9719,267.1411,4.7388e-05,4.66e-06,0.0,0 STARLINK-3901,1 52574U 22051AQ  23126.64812466  .00000466  00000-0  47388-4 0  9994,2 52574  53.2163  99.0675 0001207  92.9719 267.1411 15.08839692 54875,6917.881,95.438,540.581,538.911,0.0
52574.0,STARLINK-3901,PAYLOAD,2023-05-07 04:16:22,15.0884692,0.0001162,53.2163,96.6884,90.8859,269.2266,8.4235e-05,1.053e-05,0.0,0 STARLINK-3901,1 52574U 22051AQ  23127.17803849  .00001053  00000-0  84235-4 0  9993,2 52574  53.2163  96.6884 0001162  90.8859 269.2266 15.08846920 55023,6917.859,95.437,540.528,538.92,0.0
52574.0,STARLINK-3901,PAYLOAD,2023-05-07 15:24:04,15.08842601,0.0001142,53.2164,94.6066,90.5821,269.5302,5.3907e-05,5.7e-06,0.0,0 STARLINK-3901,1 52574U 22051AQ  23127.64172105  .00000570  00000-0  53907-4 0  9994,2 52574  53.2164  94.6066 0001142  90.5821 269.5302 15.08842601 55091,6917.872,95.437,540.527,538.947,0.0
52574.0,STARLINK-3901,PAYLOAD,2023-05-08 04:07:10,15.08832209,0.0001205,53.2165,92.2281,89.6034,270.5096,-1.7336e-05,-5.64e-06,0.0,0 STARLINK-3901,1 52574U 22051AQ  23128.17165130 -.00000564  00000-0 -17336-4 0  9994,2 52574  53.2165  92.2281 0001205  89.6034 270.5096 15.08832209 55174,6917.904,95.438,540.603,538.936,0.0
52574.0,STARLINK-3901,PAYLOAD,2023-05-08 07:17:56,15.08838378,0.0001245,53.2166,91.6339,87.2466,272.8668,3.2232e-05,2.25e-06,0.0,0 STARLINK-3901,1 52574U 22051AQ  23128.30412642  .00000225  00000-0  32232-4 0  9996,2 52574  53.2166  91.6339 0001245  87.2466 272.8668 15.08838378 55194,6917.885,95.438,540.612,538.889,0.0
52574.0,STARLINK-3901,PAYLOAD,2023-05-09 03:57:56,15.08847641,0.0001374,53.2177,87.7675,93.4884,266.6265,5.0394e-06,-2.08e-06,0.0,0 STARLINK-3901,1 52574U 22051AQ  23129.16524185 -.00000208  00000-0  50394-5 0  9999,2 52574  53.2177  87.7675 0001374  93.4884 266.6265 15.08847641 55255,6917.857,95.437,540.673,538.772,0.0
52574.0,STARLINK-3901,PAYLOAD,2023-05-10 03:48:44,15.08838142,0.0001425,53.2184,83.3113,92.382,267.7335,0.00015707,2.213e-05,0.0,0 STARLINK-3901,1 52574U 22051AQ  23130.15884456  .00002213  00000-0  15707-3 0  9994,2 52574  53.2184  83.3113 0001425  92.3820 267.7335 15.08838142 55400,6917.886,95.438,540.737,538.765,0.0
52574.0,STARLINK-3901,PAYLOAD,2023-05-11 03:39:31,15.08844425,0.0001386,53.2193,78.8518,100.1736,259.9413,-2.059e-06,-3.21e-06,0.0,0 STARLINK-3901,1 52574U 22051AQ  23131.15244629 -.00000321  00000-0 -20590-5 0  9995,2 52574  53.2193  78.8518 0001386 100.1736 259.9413 15.08844425 55555,6917.867,95.437,540.691,538.773,0.0
52574.0,STARLINK-3901,PAYLOAD,2023-05-12 00:19:33,15.08832031,0.0001514,53.2195,74.9866,110.2062,249.9093,-6.7106e-05,-1.356e-05,0.0,0 STARLINK-3901,1 52574U 22051AQ  23132.01357887 -.00001356  00000-0 -67106-4 0  9994,2 52574  53.2195  74.9866 0001514 110.2062 249.9093 15.08832031 55752,6917.905,95.438,540.817,538.722,0.0
52574.0,STARLINK-3901,PAYLOAD,2023-05-12 03:30:19,15.08833763,0.0001295,53.218,74.3908,108.0903,252.023,-4.6665e-05,-1.03e-05,0.0,0 STARLINK-3901,1 52574U 22051AQ  23132.14605730 -.00001030  00000-0 -46665-4 0  9997,2 52574  53.2180  74.3908 0001295 108.0903 252.0230 15.08833763 55708,6917.899,95.438,540.66,538.869,0.0
52574.0,STARLINK-3901,PAYLOAD,2023-05-13 03:21:05,15.08861542,0.0001441,53.2177,69.9302,106.861,253.254,-3.6898e-05,-8.76e-06,0.0,0 STARLINK-3901,1 52574U 22051AQ  23133.13964142 -.00000876  00000-0 -36898-4 0  9996,2 52574  53.2177  69.9302 0001441 106.8610 253.2540 15.08861542 55923,6917.815,95.436,540.676,538.683,0.0
52574.0,STARLINK-3901,PAYLOAD,2023-05-14 04:47:16,15.08840975,0.000116,53.2182,65.17,107.1335,252.9784,9.1963e-05,1.176e-05,0.0,0 STARLINK-3901,1 52574U 22051AQ  23134.19949340  .00001176  00000-0  91963-4 0  9992,2 52574  53.2182  65.1700 0001160 107.1335 252.9784 15.08840975 56086,6917.877,95.437,540.545,538.94,0.0
52574.0,STARLINK-3901,PAYLOAD,2023-05-14 19:05:44,15.08845488,0.0001409,53.2186,62.4942,91.2823,268.8331,-5.1064e-05,-1.101e-05,0.0,0 STARLINK-3901,1 52574U 22051AQ  23134.79565693 -.00001101  00000-0 -51064-4 0  9991,2 52574  53.2186  62.4942 0001409  91.2823 268.8331 15.08845488 56100,6917.864,95.437,540.703,538.754,0.0
52574.0,STARLINK-3901,PAYLOAD,2023-05-15 12:34:58,15.08848923,0.0001398,53.2183,59.2233,86.5608,273.5544,3.596e-06,-2.31e-06,0.0,0 STARLINK-3901,1 52574U 22051AQ  23135.52428995 -.00000231  00000-0  35960-5 0  9996,2 52574  53.2183  59.2233 0001398  86.5608 273.5544 15.08848923 56284,6917.853,95.437,540.685,538.751,0.0
52574.0,STARLINK-3901,PAYLOAD,2023-05-16 01:18:04,15.08840588,0.0001472,53.219,56.845,91.2453,268.8707,5.675e-05,6.15e-06,0.0,0 STARLINK-3901,1 52574U 22051AQ  23136.05421455  .00000615  00000-0  56750-4 0  9993,2 52574  53.2190  56.8450 0001472  91.2453 268.8707 15.08840588 56366,6917.879,95.438,540.762,538.725,0.0
52574.0,STARLINK-3901,PAYLOAD,2023-05-16 21:58:04,15.08842545,0.0001313,53.219,52.9761,100.7528,259.3612,-1.9212e-05,-5.94e-06,0.0,0 STARLINK-3901,1 52574U 22051AQ  23136.91533456 -.00000594  00000-0 -19212-4 0  9993,2 52574  53.2190  52.9761 0001313 100.7528 259.3612 15.08842545 56423,6917.873,95.437,540.646,538.829,0.0
52574.0,STARLINK-3901,PAYLOAD,2023-05-17 21:48:52,15.08829797,0.0001154,53.2188,48.522,82.1828,277.9295,3.0253e-05,1.94e-06,0.0,0 STARLINK-3901,1 52574U 22051AQ  23137.90894224  .00000194  00000-0  30253-4 0  9998,2 52574  53.2188  48.5220 0001154  82.1828 277.9295 15.08829797 56573,6917.912,95.438,540.575,538.978,0.0
52574.0,STARLINK-3901,PAYLOAD,2023-05-18 02:35:01,15.08840072,0.0001168,53.218,47.6241,83.4381,276.6744,8.9001e-07,-2.74e-06,0.0,0 STARLINK-3901,1 52574U 22051AQ  23138.10765649 -.00000274  00000-0  89001-6 0  9996,2 52574  53.2180  47.6241 0001168  83.4381 276.6744 15.08840072 56676,6917.88,95.438,540.553,538.937,0.0
52574.0,STARLINK-3901,PAYLOAD,2023-05-19 21:30:26,15.08836597,0.0001148,53.2185,39.597,95.4038,264.7085,3.254e-05,2.3e-06,0.0,0 STARLINK-3901,1 52574U 22051AQ  23139.89614322  .00000230  00000-0  32540-4 0  9999,2 52574  53.2185  39.5970 0001148  95.4038 264.7085 15.08836597 56875,6917.891,95.438,540.55,538.962,0.0
52574.0,STARLINK-3901,PAYLOAD,2023-05-20 00:41:12,15.0883928,0.0001162,53.2185,39.0023,94.8414,265.2711,5.3833e-05,5.69e-06,0.0,0 STARLINK-3901,1 52574U 22051AQ  23140.02862109  .00000569  00000-0  53833-4 0  9997,2 52574  53.2185  39.0023 0001162  94.8414 265.2711 15.08839280 56960,6917.883,95.438,540.551,538.944,0.0
